{"fetched_at":"2026-05-21T21:29:38Z","count":8008,"tles":[{"name":"STARLINK-34692","line1":"1 65759U 25216AB  26140.88436728  .00020335  00000+0  69664-3 0  9993","line2":"2 65759  53.1602 357.7838 0001308  93.9596 266.1555 15.30208547 37550","category":"Starlink"},{"name":"STARLINK-32755","line1":"1 62842U 25019P   26139.77325601  .00014731  00000+0  54345-3 0  9990","line2":"2 62842  43.0051  40.4960 0000746 285.9622  74.1148 15.27598938 73205","category":"Starlink"},{"name":"AEPEX","line1":"1 68506U 26067CU  26140.92003326  .00005270  00000+0  25820-3 0  9997","line2":"2 68506  97.4512  99.7683 0003709 145.6006 214.5469 15.18571946  7687","category":"Other"},{"name":"STARLINK-2604","line1":"1 48374U 21038X   26140.95518002  .00003026  00000+0  10920-3 0  9998","line2":"2 48374  53.1603  11.6951 0001245  88.9958 271.1186 15.31709800278296","category":"Starlink"},{"name":"YZ-1 R/B","line1":"1 41929U 15019C   26106.08788910 -.00000902  00000+0  00000+0 0  9997","line2":"2 41929  12.7043  99.6658 6883151 302.6732 359.1130  0.27914110 10606","category":"Other"},{"name":"STARLINK-5094","line1":"1 53977U 22125P   26140.84461227 -.00001209  00000+0 -57849-4 0  9990","line2":"2 53977  53.2161 255.3165 0000894  98.8227 261.2867 15.08851920200288","category":"Starlink"},{"name":"CSG-2","line1":"1 51444U 22008A   26140.94587788  .00000850  00000+0  11328-3 0  9999","line2":"2 51444  97.8882 324.9387 0001485  86.4815 273.6568 14.82154665232554","category":"Other"},{"name":"STARLINK-1303","line1":"1 45396U 20019AN  23361.64198292  .00000354  00000+0  42688-4 0  9998","line2":"2 45396  53.0547 151.6430 0001576 111.5335 248.5822 15.06400137208683","category":"Starlink"},{"name":"SHIYAN-19 (SY-19)","line1":"1 55861U 23034A   26140.97584376  .00013977  00000+0  20567-3 0  9998","line2":"2 55861  97.3955 356.3877 0007237  90.9254 269.2830 15.55533550178331","category":"Other"},{"name":"HIBER-4","line1":"1 47541U 21006EB  24242.92240690  .03933846  23751-5  18385-2 0  9992","line2":"2 47541  97.2829 309.0498 0012214 262.6607  97.3294 16.21498599200484","category":"Other"},{"name":"STARLINK-34316","line1":"1 64707U 25142M   26140.33511807  .00003309  00000+0  28492-3 0  9991","line2":"2 64707  69.9999 133.7686 0004510 262.8978  97.1668 14.98338881 50389","category":"Starlink"},{"name":"STARLINK-3683","line1":"1 53167U 22083AM  26140.84000757 -.00000015  00000+0  17140-4 0  9994","line2":"2 53167  53.2158 185.2176 0001152  81.6652 278.4471 15.08836156212455","category":"Starlink"},{"name":"STARLINK-36444","line1":"1 67521U 26012AE  26140.74289637  .00016222  00000+0  59727-3 0  9996","line2":"2 67521  43.0083 267.2839 0002501 254.7937 105.2638 15.27603936 18784","category":"Starlink"},{"name":"STARLINK-35397","line1":"1 65825U 25221C   26140.25018022  .00015311  00000+0  46325-3 0  9994","line2":"2 65825  53.1598 115.6692 0001260  80.1929 279.9216 15.34407205 37048","category":"Starlink"},{"name":"SL-4 R/B","line1":"1 62906U 25026E   25066.81175985  .00669576 -92141-6  70576-3 0  9992","line2":"2 62906  81.9935 185.7692 0166506 319.6800 158.8364 15.88272292  4789","category":"Other"},{"name":"STARLINK-2655","line1":"1 48449U 21040X   26140.56872301  .00000795  00000+0  37363-4 0  9997","line2":"2 48449  53.1578 203.8403 0001151  75.9113 284.2017 15.31714694277690","category":"Starlink"},{"name":"LEMUR-2-SAM-AMELIA","line1":"1 42781U 17036S   23362.32008897  .00097590  00000+0  94873-3 0  9995","line2":"2 42781  97.1166  40.2383 0004876  89.7966 270.3853 15.65974962363121","category":"Other"},{"name":"STARLINK-5170","line1":"1 54062U 22136M   26140.95270036 -.00000225  00000+0  39759-5 0  9993","line2":"2 54062  53.2198  19.6887 0001380  92.1957 267.9193 15.08837900197758","category":"Starlink"},{"name":"STARLINK-3448","line1":"1 51728U 22016Q   23362.17574034  .00002239  00000+0  15871-3 0  9991","line2":"2 51728  53.2188 321.7375 0001711 117.5682 242.5484 15.08842775103549","category":"Starlink"},{"name":"FENGYUN 1C DEB","line1":"1 45526U 99025EYR 26104.18241161  .00002142  00000+0  88563-3 0  9995","line2":"2 45526  98.7508 181.3715 0052627 224.9165 134.7751 14.26995766451225","category":"Weather"},{"name":"ARCE-1B","line1":"1 47615U 21006EG  23360.72663023  .00412685  00000+0  31073-2 0  9996","line2":"2 47615  97.3426  63.9993 0004134  11.8434 348.2925 15.71303630161660","category":"Other"},{"name":"FALCON 9 DEB","line1":"1 57266U 23094BA  23204.48063410  .09825835  93965-5  19718-3 0  9997","line2":"2 57266  42.9716 219.3097 0015538 264.7975  95.1146 16.45710190  2541","category":"Other"},{"name":"STARLINK-34652","line1":"1 64772U 25147T   26140.91668981 -.00002197  00000+0 -53923-4 0  9992","line2":"2 64772  53.1598 266.6831 0000854  68.2701  96.3316 15.34395909  5777","category":"Starlink"},{"name":"STARLINK-11316 [DTC]","line1":"1 61875U 24204B   26140.91876663  .00004220  00000+0  39701-4 0  9999","line2":"2 61875  53.1613 359.8618 0001538 107.2035 252.9151 15.69696605 88265","category":"Starlink"},{"name":"STARLINK-36560","line1":"1 67585U 26016AA  26140.41256934  .00013912  00000+0  43234-3 0  9997","line2":"2 67585  97.2854 200.7807 0000536  93.7339 266.3965 15.33454396 17851","category":"Starlink"},{"name":"STARLINK-35193","line1":"1 65889U 25224H   26140.94819987  .00016174  00000+0  55696-3 0  9991","line2":"2 65889  53.1602  35.9744 0001379  80.7687 279.3470 15.30203640 35917","category":"Starlink"},{"name":"STARLINK-11417 [DTC]","line1":"1 62983U 25031C   26140.70240160  .00125167  00000+0  96143-3 0  9999","line2":"2 62983  42.9992 287.7913 0000715 251.6297 108.4493 15.70911946 74066","category":"Starlink"},{"name":"CANVAS","line1":"1 68635U 26074J   26140.94620115  .00007718  00000+0  31832-3 0  9990","line2":"2 68635  60.0227 282.6587 0024911   2.4371 357.6826 15.24683461  6631","category":"Other"},{"name":"STARLINK-2234","line1":"1 48580U 21041AD  26140.25603593  .00003348  00000+0  11951-3 0  9996","line2":"2 48580  53.1582 128.1754 0001275  75.5892 284.5251 15.31722264276601","category":"Starlink"},{"name":"IRIDIUM 107","line1":"1 42960U 17061F   26140.44762417  .00000044  00000+0  84831-5 0  9990","line2":"2 42960  86.3992  36.8648 0002355  79.3034 280.8427 14.34217882450848","category":"Other"},{"name":"ONEWEB-0514","line1":"1 54132U 22138V   26140.95426658  .00000032  00000+0  47364-4 0  9991","line2":"2 54132  87.9156 310.3936 0001900  96.0506 264.0843 13.19725815173239","category":"Other"},{"name":"STARLINK-11702 [DTC]","line1":"1 63752U 25089B   26140.90430014  .00156605  00000+0  11993-2 0  9998","line2":"2 63752  42.9984 216.9008 0002093 280.4069  79.6563 15.70874348 61493","category":"Starlink"},{"name":"UNKNOWN","line1":"1 81564U          23360.28619472  .00021408  00000+0  69548-2 0  9995","line2":"2 81564  81.1814 348.4269 0023428 280.7207  79.1341 14.38573046463706","category":"Other"},{"name":"STARLINK-3600","line1":"1 51800U 22017AJ  23348.71967606  .05377668  12290-4  51476-3 0  9994","line2":"2 51800  53.1930 337.2493 0003054  84.1657  83.2172 16.37718513101817","category":"Starlink"},{"name":"STARLINK-35711","line1":"1 66595U 25270H   26140.91612155  .00013047  00000+0  48246-3 0  9991","line2":"2 66595  43.0007   8.1353 0001257 113.3808 246.7176 15.27603006 28863","category":"Starlink"},{"name":"STARLINK-1441","line1":"1 45658U 20035B   23362.47870759  .00023867  00000+0  16165-2 0  9997","line2":"2 45658  53.0553  67.8883 0001454  75.6642 284.4509 15.06382497197414","category":"Starlink"},{"name":"ONEWEB-0550","line1":"1 56052U 23043G   26140.75098114  .00000005  00000+0 -18780-4 0  9991","line2":"2 56052  87.9256 249.4375 0002145  96.2639 263.8739 13.21824427154606","category":"Other"},{"name":"FLOCK 4S-43","line1":"1 47687U 21006EN  23361.91279282  .00024972  00000+0  67197-3 0  9992","line2":"2 47687  97.3588  59.8759 0004991 125.0661 235.1052 15.37846055163351","category":"Other"},{"name":"STARLINK-6372","line1":"1 57348U 23099W   26140.61011169  .00000756  00000+0  36978-4 0  9992","line2":"2 57348  43.0023 202.9998 0001046 288.1234  71.9504 15.27577467157111","category":"Starlink"},{"name":"KUIPER-00091","line1":"1 64836U 25151W   26140.79858986  .00002093  00000+0  30411-3 0  9999","line2":"2 64836  51.9016 324.2304 0000756 104.6044 255.5002 14.79832508 46226","category":"Other"},{"name":"SBIRS GEO-6 (USA 336)","line1":"1 53355U 22092A   26140.90574881 -.00000300  00000+0  00000+0 0  9993","line2":"2 53355   3.3041 317.0663 0001853  89.7930 296.7730  1.00270889 13961","category":"Military"},{"name":"STARLINK-11407 [DTC]","line1":"1 61939U 24209A   26139.95272687  .00115934  00000+0  94702-3 0  9999","line2":"2 61939  53.1573  19.7369 0000894  69.3369 290.7745 15.69746855 87933","category":"Starlink"},{"name":"STARLINK-36342","line1":"1 67649U 26022B   26140.95865075  .00001912  00000+0  61606-4 0  9997","line2":"2 67649  97.2840 175.2726 0001088  88.6330 271.5037 15.33415582 16716","category":"Starlink"},{"name":"KUIPER-00124","line1":"1 65953U 25228G   26140.95766548  .00002349  00000+0  33692-3 0  9993","line2":"2 65953  51.9001  35.9999 0000860 101.6705 258.4354 14.79945869 34004","category":"Other"},{"name":"STARLINK-32590","line1":"1 63047U 25034U   26140.78355761  .00013672  00000+0  47293-3 0  9995","line2":"2 63047  53.1585 283.3282 0002965  93.9195 266.2145 15.30195936 70112","category":"Starlink"},{"name":"STARLINK-37334","line1":"1 68700U 26081B   26140.91668981 -.01937971  00000+0 -31075-1 0  9994","line2":"2 68700  53.1596  59.4969 0001476  92.7261  87.8836 15.56002526  6063","category":"Starlink"},{"name":"STARLINK-2745","line1":"1 48671U 21044AK  26140.70140943  .00000582  00000+0  32494-4 0  9998","line2":"2 48671  53.1592 139.4480 0001171 101.0611 259.0521 15.29349967274835","category":"Starlink"},{"name":"STARLINK-5244","line1":"1 54199U 22141AU  26140.98857714 -.00000466  00000+0 -11197-4 0  9990","line2":"2 54199  53.2179  29.4809 0001309  87.9692 272.1450 15.08834733196912","category":"Starlink"}]}